{
"type": "FeatureCollection",
"name": "gps_first_order",
"crs": { "type": "name", "properties": { "name": "urn:ogc:def:crs:OGC:1.3:CRS84" } },
"features": [
{ "type": "Feature", "properties": { "easting": 379298.76811, "northing": 3001165.8577000001, "height": 1776.52195, "stationid": "BRON", "gewog": "Kengkhar", "dzongkhag": "Monggar", "chiwog": "Olokid_Tsalabi" }, "geometry": { "type": "MultiPoint", "coordinates": [ [ 91.303969840061029, 27.116104229679184, 1776.522000000004937 ] ] } },
{ "type": "Feature", "properties": { "easting": 274617.69011000003, "northing": 2990551.4688200001, "height": 2483.539, "stationid": "DEOR", "gewog": "Doban", "dzongkhag": "Sarpang", "chiwog": "Draagchhu" }, "geometry": { "type": "MultiPoint", "coordinates": [ [ 90.248081900200788, 27.026144940278645, 2483.539000000004762 ] ] } },
{ "type": "Feature", "properties": { "easting": 408291.05634000001, "northing": 3033144.1773399999, "height": 2586.83786, "stationid": "DUNG", "gewog": "Bartsham", "dzongkhag": "Trashigang", "chiwog": "Bainangkhar_Nangkhar" }, "geometry": { "type": "MultiPoint", "coordinates": [ [ 91.600397099697702, 27.401566809774206, 2586.837900000004993 ] ] } },
{ "type": "Feature", "properties": { "easting": 237744.46906, "northing": 3063265.42906, "height": 2242.00312, "stationid": "GANJ", "gewog": "Chhubu", "dzongkhag": "Punakha", "chiwog": "Ngoe-Droob-Chhu" }, "geometry": { "type": "MultiPoint", "coordinates": [ [ 89.875765900507901, 27.68251691069463, 2242.003200000005108 ] ] } },
{ "type": "Feature", "properties": { "easting": 278314.91786, "northing": 3033416.6816500002, "height": 4067.60681, "stationid": "GAYL", "gewog": "Tangsibji", "dzongkhag": "Trongsa", "chiwog": "Kela" }, "geometry": { "type": "MultiPoint", "coordinates": [ [ 90.286327320384274, 27.412915290572194, 4067.606800000005023 ] ] } },
{ "type": "Feature", "properties": { "easting": 295718.16086, "northing": 2974698.8276300002, "height": 281.83119, "stationid": "GELE", "gewog": "Bhur", "dzongkhag": "Sarpang", "chiwog": "Chhoekhorling_Dechhen Pelri" }, "geometry": { "type": "MultiPoint", "coordinates": [ [ 90.460133640033447, 26.882543589533, 281.831200000004799 ] ] } },
{ "type": "Feature", "properties": { "easting": 207839.05856, "northing": 2995973.46954, "height": 2440.44346, "stationid": "JABC", "gewog": "Bjachho", "dzongkhag": "Chhukha", "chiwog": "Bjagchhog" }, "geometry": { "type": "MultiPoint", "coordinates": [ [ 89.574946800803374, 27.074654219584172, 2440.44350000000486 ] ] } },
{ "type": "Feature", "properties": { "easting": 301391.97706, "northing": 3006589.6723699998, "height": 1885.22677, "stationid": "KORP", "gewog": "Korphu", "dzongkhag": "Trongsa", "chiwog": "Korphu Maed" }, "geometry": { "type": "MultiPoint", "coordinates": [ [ 90.518556370443505, 27.170147590582644, 1885.226800000004914 ] ] } },
{ "type": "Feature", "properties": { "easting": 321029.28537, "northing": 3075482.8785199998, "height": 4331.19152, "stationid": "LUGS", "gewog": "Chokhor", "dzongkhag": "Bumthang", "chiwog": "Nangsiphel_Zangling_ Zhabjethang" }, "geometry": { "type": "MultiPoint", "coordinates": [ [ 90.720725180591899, 27.790943569907462, 4331.191600000004655 ] ] } },
{ "type": "Feature", "properties": { "easting": 434091.92065, "northing": 3022808.9521499998, "height": 3609.10288, "stationid": "MERA", "gewog": "Merak", "dzongkhag": "Trashigang", "chiwog": "Merag Maed" }, "geometry": { "type": "MultiPoint", "coordinates": [ [ 91.859594220474904, 27.305109270699663, 3609.102900000004865 ] ] } },
{ "type": "Feature", "properties": { "easting": 218299.53093000001, "northing": 2976493.15808, "height": 2615.29686, "stationid": "NIMP", "gewog": "Bongo", "dzongkhag": "Chhukha", "chiwog": "Ketogkha" }, "geometry": { "type": "MultiPoint", "coordinates": [ [ 89.680900760132047, 26.899126360308703, 2615.296900000004825 ] ] } },
{ "type": "Feature", "properties": { "easting": 324372.75488999998, "northing": 3059153.249, "height": 2971.22611, "stationid": "NOPT", "gewog": "Chokhor", "dzongkhag": "Bumthang", "chiwog": "Pedtsheling_Tamzhing" }, "geometry": { "type": "MultiPoint", "coordinates": [ [ 90.753634940364364, 27.643415770203241, 2971.226100000004863 ] ] } },
{ "type": "Feature", "properties": { "easting": 201015.61392, "northing": 3013928.4123300002, "height": 2821.64845, "stationid": "NUPC", "gewog": "Doga", "dzongkhag": "Paro", "chiwog": "Khamdraag_Sali" }, "geometry": { "type": "MultiPoint", "coordinates": [ [ 89.505443809504499, 27.236462900139788, 2821.648500000004788 ] ] } },
{ "type": "Feature", "properties": { "easting": 267629.02672000002, "northing": 3056711.5889900001, "height": 3169.37868, "stationid": "POIN", "gewog": "Dangchhu", "dzongkhag": "Wangduephodrang", "chiwog": "Godraang_Taagsar" }, "geometry": { "type": "MultiPoint", "coordinates": [ [ 90.178608829987397, 27.62331487006664, 3169.378700000004756 ] ] } },
{ "type": "Feature", "properties": { "easting": 146307.69264, "northing": 2995327.3210300002, "height": 1322.67377, "stationid": "POKH", "gewog": "Namgyel Chhoeling", "dzongkhag": "Samtse", "chiwog": "Sernyagang_Tsholingkhar" }, "geometry": { "type": "MultiPoint", "coordinates": [ [ 88.954719859339747, 27.06558082018304, 1322.673800000004803 ] ] } },
{ "type": "Feature", "properties": { "easting": 342492.99774000002, "northing": 3012848.1168499999, "height": 1434.13738, "stationid": "RADI", "gewog": "Shingkhar", "dzongkhag": "Zhemgang", "chiwog": "Radhi" }, "geometry": { "type": "MultiPoint", "coordinates": [ [ 90.933710439786338, 27.224475070487937, 1434.137400000004845 ] ] } },
{ "type": "Feature", "properties": { "easting": 397393.58263000002, "northing": 3056613.88742, "height": 1811.97563, "stationid": "RINC", "gewog": "Trashiyangtse", "dzongkhag": "Trashiyangtse", "chiwog": "LAP 3" }, "geometry": { "type": "MultiPoint", "coordinates": [ [ 91.49310590015223, 27.614513689795203, 1811.975700000004963 ] ] } },
{ "type": "Feature", "properties": { "easting": 178735.42738000001, "northing": 3040082.5782300001, "height": 3718.45899, "stationid": "SAGA", "gewog": "Tsento", "dzongkhag": "Paro", "chiwog": "Nyamjey_Phangdo" }, "geometry": { "type": "MultiPoint", "coordinates": [ [ 89.278983909981463, 27.471498289859316, 3718.459000000004835 ] ] } },
{ "type": "Feature", "properties": { "easting": 241580.84123, "northing": 2962273.19655, "height": 461.71724, "stationid": "SALD", "gewog": "karmaling", "dzongkhag": "Dagana", "chiwog": "Karmaling" }, "geometry": { "type": "MultiPoint", "coordinates": [ [ 89.915347110128991, 26.771123600608281, 461.717300000004798 ] ] } },
{ "type": "Feature", "properties": { "easting": 245613.00874, "northing": 2979779.54372, "height": 1489.02588, "stationid": "SANS", "gewog": "Tsendagang", "dzongkhag": "Dagana", "chiwog": "Norbu-Zhingkha" }, "geometry": { "type": "MultiPoint", "coordinates": [ [ 89.955828409206859, 26.929139829871755, 1489.025900000004867 ] ] } },
{ "type": "Feature", "properties": { "easting": 377523.48116999998, "northing": 3096169.7266699998, "height": 3864.78336, "stationid": "SDZG", "gewog": "Khoma", "dzongkhag": "Lhuentse", "chiwog": "Rolmoteng _Tsang-Ngo" }, "geometry": { "type": "MultiPoint", "coordinates": [ [ 91.296092160296681, 27.973392249975618, 3864.783400000004804 ] ] } },
{ "type": "Feature", "properties": { "easting": 352034.48421999998, "northing": 3028006.29318, "height": 2980.65056, "stationid": "SENG", "gewog": "Saleng", "dzongkhag": "Monggar", "chiwog": "Seng-Gor" }, "geometry": { "type": "MultiPoint", "coordinates": [ [ 91.031281949704322, 27.360574420057773, 2980.650600000004943 ] ] } },
{ "type": "Feature", "properties": { "easting": 397877.89192999998, "northing": 3088428.2297299998, "height": 3881.61264, "stationid": "SHIN", "gewog": "Bumdeling", "dzongkhag": "Trashiyangtse", "chiwog": "Pangkhar_Taphel" }, "geometry": { "type": "MultiPoint", "coordinates": [ [ 91.501945089884316, 27.901454769919834, 3881.612700000005134 ] ] } },
{ "type": "Feature", "properties": { "easting": 231774.66876, "northing": 3000291.4641999998, "height": 2951.34115, "stationid": "TAKS", "gewog": "Tseza", "dzongkhag": "Dagana", "chiwog": "Samaed" }, "geometry": { "type": "MultiPoint", "coordinates": [ [ 89.816192739934309, 27.114145679756412, 2951.341200000004847 ] ] } },
{ "type": "Feature", "properties": { "easting": 278183.8634, "northing": 3064082.80216, "height": 4196.21532, "stationid": "TAMP", "gewog": "Sephu", "dzongkhag": "Wangduephodrang", "chiwog": "Booso_Zeri" }, "geometry": { "type": "MultiPoint", "coordinates": [ [ 90.285717349933307, 27.689653990405166, 4196.215400000004593 ] ] } },
{ "type": "Feature", "properties": { "easting": 367894.14268, "northing": 3053750.5538499998, "height": 1817.47183, "stationid": "TANG", "gewog": "Menbi", "dzongkhag": "Lhuentse", "chiwog": "Tagmochhu_Gorgan" }, "geometry": { "type": "MultiPoint", "coordinates": [ [ 91.19405404981795, 27.591573759908716, 1817.47190000000478 ] ] } },
{ "type": "Feature", "properties": { "easting": 212756.05695, "northing": 3041324.1043500002, "height": 2703.21206, "stationid": "THPU", "gewog": "Kawang", "dzongkhag": "Thimphu", "chiwog": "Chhangdagang_Chhoekhortse_Phajoding" }, "geometry": { "type": "MultiPoint", "coordinates": [ [ 89.623139170906498, 27.484058910513049, 2703.212100000004739 ] ] } },
{ "type": "Feature", "properties": { "easting": 239630.33914, "northing": 3045086.1198100001, "height": 1513.79683, "stationid": "TONG", "gewog": "Thedtsho", "dzongkhag": "Wangduephodrang", "chiwog": "Thanggoo" }, "geometry": { "type": "MultiPoint", "coordinates": [ [ 89.895039309725931, 27.518479129657358, 1513.796900000004825 ] ] } },
{ "type": "Feature", "properties": { "easting": 410850.14178000001, "northing": 3001821.9389300002, "height": 1819.39677, "stationid": "TSAN", "gewog": "Thrimshing", "dzongkhag": "Trashigang", "chiwog": "Doongsingma_Tsangpo" }, "geometry": { "type": "MultiPoint", "coordinates": [ [ 91.622155880507236, 27.11870938979963, 1819.396800000004987 ] ] } },
{ "type": "Feature", "properties": { "easting": 264541.08094999997, "northing": 3037897.3604700002, "height": 3596.52516, "stationid": "TSHE", "gewog": "Gangte", "dzongkhag": "Wangduephodrang", "chiwog": "Tapaiteng_Uesa" }, "geometry": { "type": "MultiPoint", "coordinates": [ [ 90.147097080562361, 27.453567140470295, 3596.525200000005043 ] ] } },
{ "type": "Feature", "properties": { "easting": 339287.59794000001, "northing": 2978904.2728599999, "height": 455.64515, "stationid": "UMLI", "gewog": "Gozhing", "dzongkhag": "Zhemgang", "chiwog": "Lingmapong_Samchhoeling" }, "geometry": { "type": "MultiPoint", "coordinates": [ [ 90.898908859466559, 26.918385420550237, 455.64520000000482 ] ] } },
{ "type": "Feature", "properties": { "easting": 210640.99296, "northing": 3064966.8341100002, "height": 4107.85555, "stationid": "YESH", "gewog": "Naro", "dzongkhag": "Thimphu", "chiwog": "Barshong_Nango" }, "geometry": { "type": "MultiPoint", "coordinates": [ [ 89.600966180512714, 27.697351369977987, 4107.855600000005325 ] ] } },
{ "type": "Feature", "properties": { "easting": 399702.55637000001, "northing": 3017086.0647100001, "height": 2558.85303, "stationid": "YONP", "gewog": "Kanglung", "dzongkhag": "Trashigang", "chiwog": "Yonphula" }, "geometry": { "type": "MultiPoint", "coordinates": [ [ 91.511622079891396, 27.257669359845028, 2558.853100000004815 ] ] } },
{ "type": "Feature", "properties": { "easting": 177933.24537, "northing": 3016894.3981400002, "height": 3736.06657, "stationid": "ZEYT", "gewog": "Sama", "dzongkhag": "Haa", "chiwog": "Dorikha_Langjogang" }, "geometry": { "type": "MultiPoint", "coordinates": [ [ 89.272238210781367, 27.262211009761714, 3736.06660000000511 ] ] } }
]
}
